[{"OBJECT_NAME":"STARLINK-4071","OBJECT_ID":"2022-053R","EPOCH":"2026-03-09T12:15:43.875072","MEAN_MOTION":15.08824215,"ECCENTRICITY":0.00012572,"INCLINATION":53.2164,"RA_OF_ASC_NODE":154.9249,"ARG_OF_PERICENTER":86.5025,"MEAN_ANOMALY":273.6111,"EPHEMERIS_TYPE":0,"CLASSIFICATION_TYPE":"U","NORAD_CAT_ID":52671,"ELEMENT_SET_NO":999,"REV_AT_EPOCH":21101,"BSTAR":-0.00010472918,"MEAN_MOTION_DOT":-1.953e-5,"MEAN_MOTION_DDOT":0},{"OBJECT_NAME":"TITAN 4B R\/B","OBJECT_ID":"2000-047B","EPOCH":"2026-03-09T21:29:16.286496","MEAN_MOTION":15.09565128,"ECCENTRICITY":0.00386241,"INCLINATION":67.9901,"RA_OF_ASC_NODE":39.932,"ARG_OF_PERICENTER":35.1583,"MEAN_ANOMALY":325.2103,"EPHEMERIS_TYPE":0,"CLASSIFICATION_TYPE":"U","NORAD_CAT_ID":26474,"ELEMENT_SET_NO":999,"REV_AT_EPOCH":39294,"BSTAR":0.00034805691,"MEAN_MOTION_DOT":5.567e-5,"MEAN_MOTION_DDOT":0}]
